ONEWEB-0102             
1 47258U 20100A   24291.75328138 -.00000219  00000+0 -64434-3 0  9991
2 47258  87.8842 111.6594 0001628  82.1099 278.0214 13.12441600185053
ONEWEB-0109             
1 47259U 20100B   24292.06633754 -.00000400  00000+0 -11480-2 0  9994
2 47259  87.8844 111.5628 0001673  83.4668 276.6651 13.12442204184924
ONEWEB-0110             
1 47260U 20100C   24291.78734597  .00000216  00000+0  56437-3 0  9996
2 47260  87.8838 111.6173 0001719  85.8204 274.3121 13.12445415185057
ONEWEB-0111             
1 47261U 20100D   24291.89439908  .00000194  00000+0  50350-3 0  9990
2 47261  87.8843 111.5981 0001584  84.4000 275.7309 13.12443742184906
ONEWEB-0114             
1 47262U 20100E   24291.77272182  .00000982  00000+0  26936-2 0  9994
2 47262  87.8847 111.6331 0001489  72.3268 287.8023 13.12454609184841
ONEWEB-0117             
1 47263U 20100F   24292.06957854 -.00000363  00000+0 -10440-2 0  9992
2 47263  87.8844 111.5544 0001630  88.9575 271.1741 13.12441244184895
ONEWEB-0118             
1 47264U 20100G   24292.02579400  .00000118  00000+0  29320-3 0  9990
2 47264  87.8844 111.5659 0001591  74.0545 286.0759 13.12440801185086
ONEWEB-0119             
1 47265U 20100H   24291.74841402 -.00000103  00000+0 -32198-3 0  9996
2 47265  87.8843 111.6600 0001643  86.9489 273.1827 13.12441093185021
