<?xml version="1.0" encoding="UTF-8"?>
<ndm xmlns:xsi="http://www.w3.org/2001/XMLSchema-instance" xsi:noNamespaceSchemaLocation="https://sanaregistry.org/r/ndmxml_unqualified/ndmxml-2.0.0-master-2.0.xsd">
<omm id="CCSDS_OMM_VERS" version="2.0">
<header><CREATION_DATE/><ORIGINATOR/></header><body><segment><metadata><OBJECT_NAME>ONEWEB-0102</OBJECT_NAME><OBJECT_ID>2020-100A</OBJECT_ID><CENTER_NAME>EARTH</CENTER_NAME><REF_FRAME>TEME</REF_FRAME><TIME_SYSTEM>UTC</TIME_SYSTEM><MEAN_ELEMENT_THEORY>SGP4</MEAN_ELEMENT_THEORY></metadata><data><meanElements><EPOCH>2024-10-17T18:04:43.511232</EPOCH><MEAN_MOTION>13.12441600</MEAN_MOTION><ECCENTRICITY>.0001628</ECCENTRICITY><INCLINATION>87.8842</INCLINATION><RA_OF_ASC_NODE>111.6594</RA_OF_ASC_NODE><ARG_OF_PERICENTER>82.1099</ARG_OF_PERICENTER><MEAN_ANOMALY>278.0214</MEAN_ANOMALY></meanElements><tleParameters><EPHEMERIS_TYPE>0</EPHEMERIS_TYPE><CLASSIFICATION_TYPE>U</CLASSIFICATION_TYPE><NORAD_CAT_ID>47258</NORAD_CAT_ID><ELEMENT_SET_NO>999</ELEMENT_SET_NO><REV_AT_EPOCH>18505</REV_AT_EPOCH><BSTAR>-.64434E-3</BSTAR><MEAN_MOTION_DOT>-.219E-5</MEAN_MOTION_DOT><MEAN_MOTION_DDOT>0</MEAN_MOTION_DDOT></tleParameters></data></segment></body></omm>
<omm id="CCSDS_OMM_VERS" version="2.0">
<header><CREATION_DATE/><ORIGINATOR/></header><body><segment><metadata><OBJECT_NAME>ONEWEB-0109</OBJECT_NAME><OBJECT_ID>2020-100B</OBJECT_ID><CENTER_NAME>EARTH</CENTER_NAME><REF_FRAME>TEME</REF_FRAME><TIME_SYSTEM>UTC</TIME_SYSTEM><MEAN_ELEMENT_THEORY>SGP4</MEAN_ELEMENT_THEORY></metadata><data><meanElements><EPOCH>2024-10-18T01:35:31.563456</EPOCH><MEAN_MOTION>13.12442204</MEAN_MOTION><ECCENTRICITY>.0001673</ECCENTRICITY><INCLINATION>87.8844</INCLINATION><RA_OF_ASC_NODE>111.5628</RA_OF_ASC_NODE><ARG_OF_PERICENTER>83.4668</ARG_OF_PERICENTER><MEAN_ANOMALY>276.6651</MEAN_ANOMALY></meanElements><tleParameters><EPHEMERIS_TYPE>0</EPHEMERIS_TYPE><CLASSIFICATION_TYPE>U</CLASSIFICATION_TYPE><NORAD_CAT_ID>47259</NORAD_CAT_ID><ELEMENT_SET_NO>999</ELEMENT_SET_NO><REV_AT_EPOCH>18492</REV_AT_EPOCH><BSTAR>-.1148E-2</BSTAR><MEAN_MOTION_DOT>-.4E-5</MEAN_MOTION_DOT><MEAN_MOTION_DDOT>0</MEAN_MOTION_DDOT></tleParameters></data></segment></body></omm>
<omm id="CCSDS_OMM_VERS" version="2.0">
<header><CREATION_DATE/><ORIGINATOR/></header><body><segment><metadata><OBJECT_NAME>ONEWEB-0110</OBJECT_NAME><OBJECT_ID>2020-100C</OBJECT_ID><CENTER_NAME>EARTH</CENTER_NAME><REF_FRAME>TEME</REF_FRAME><TIME_SYSTEM>UTC</TIME_SYSTEM><MEAN_ELEMENT_THEORY>SGP4</MEAN_ELEMENT_THEORY></metadata><data><meanElements><EPOCH>2024-10-17T18:53:46.691808</EPOCH><MEAN_MOTION>13.12445415</MEAN_MOTION><ECCENTRICITY>.0001719</ECCENTRICITY><INCLINATION>87.8838</INCLINATION><RA_OF_ASC_NODE>111.6173</RA_OF_ASC_NODE><ARG_OF_PERICENTER>85.8204</ARG_OF_PERICENTER><MEAN_ANOMALY>274.3121</MEAN_ANOMALY></meanElements><tleParameters><EPHEMERIS_TYPE>0</EPHEMERIS_TYPE><CLASSIFICATION_TYPE>U</CLASSIFICATION_TYPE><NORAD_CAT_ID>47260</NORAD_CAT_ID><ELEMENT_SET_NO>999</ELEMENT_SET_NO><REV_AT_EPOCH>18505</REV_AT_EPOCH><BSTAR>.56437E-3</BSTAR><MEAN_MOTION_DOT>.216E-5</MEAN_MOTION_DOT><MEAN_MOTION_DDOT>0</MEAN_MOTION_DDOT></tleParameters></data></segment></body></omm>
<omm id="CCSDS_OMM_VERS" version="2.0">
<header><CREATION_DATE/><ORIGINATOR/></header><body><segment><metadata><OBJECT_NAME>ONEWEB-0111</OBJECT_NAME><OBJECT_ID>2020-100D</OBJECT_ID><CENTER_NAME>EARTH</CENTER_NAME><REF_FRAME>TEME</REF_FRAME><TIME_SYSTEM>UTC</TIME_SYSTEM><MEAN_ELEMENT_THEORY>SGP4</MEAN_ELEMENT_THEORY></metadata><data><meanElements><EPOCH>2024-10-17T21:27:56.080512</EPOCH><MEAN_MOTION>13.12443742</MEAN_MOTION><ECCENTRICITY>.0001584</ECCENTRICITY><INCLINATION>87.8843</INCLINATION><RA_OF_ASC_NODE>111.5981</RA_OF_ASC_NODE><ARG_OF_PERICENTER>84.4000</ARG_OF_PERICENTER><MEAN_ANOMALY>275.7309</MEAN_ANOMALY></meanElements><tleParameters><EPHEMERIS_TYPE>0</EPHEMERIS_TYPE><CLASSIFICATION_TYPE>U</CLASSIFICATION_TYPE><NORAD_CAT_ID>47261</NORAD_CAT_ID><ELEMENT_SET_NO>999</ELEMENT_SET_NO><REV_AT_EPOCH>18490</REV_AT_EPOCH><BSTAR>.5035E-3</BSTAR><MEAN_MOTION_DOT>.194E-5</MEAN_MOTION_DOT><MEAN_MOTION_DDOT>0</MEAN_MOTION_DDOT></tleParameters></data></segment></body></omm>
<omm id="CCSDS_OMM_VERS" version="2.0">
<header><CREATION_DATE/><ORIGINATOR/></header><body><segment><metadata><OBJECT_NAME>ONEWEB-0114</OBJECT_NAME><OBJECT_ID>2020-100E</OBJECT_ID><CENTER_NAME>EARTH</CENTER_NAME><REF_FRAME>TEME</REF_FRAME><TIME_SYSTEM>UTC</TIME_SYSTEM><MEAN_ELEMENT_THEORY>SGP4</MEAN_ELEMENT_THEORY></metadata><data><meanElements><EPOCH>2024-10-17T18:32:43.165248</EPOCH><MEAN_MOTION>13.12454609</MEAN_MOTION><ECCENTRICITY>.0001489</ECCENTRICITY><INCLINATION>87.8847</INCLINATION><RA_OF_ASC_NODE>111.6331</RA_OF_ASC_NODE><ARG_OF_PERICENTER>72.3268</ARG_OF_PERICENTER><MEAN_ANOMALY>287.8023</MEAN_ANOMALY></meanElements><tleParameters><EPHEMERIS_TYPE>0</EPHEMERIS_TYPE><CLASSIFICATION_TYPE>U</CLASSIFICATION_TYPE><NORAD_CAT_ID>47262</NORAD_CAT_ID><ELEMENT_SET_NO>999</ELEMENT_SET_NO><REV_AT_EPOCH>18484</REV_AT_EPOCH><BSTAR>.26936E-2</BSTAR><MEAN_MOTION_DOT>.982E-5</MEAN_MOTION_DOT><MEAN_MOTION_DDOT>0</MEAN_MOTION_DDOT></tleParameters></data></segment></body></omm>
<omm id="CCSDS_OMM_VERS" version="2.0">
<header><CREATION_DATE/><ORIGINATOR/></header><body><segment><metadata><OBJECT_NAME>ONEWEB-0117</OBJECT_NAME><OBJECT_ID>2020-100F</OBJECT_ID><CENTER_NAME>EARTH</CENTER_NAME><REF_FRAME>TEME</REF_FRAME><TIME_SYSTEM>UTC</TIME_SYSTEM><MEAN_ELEMENT_THEORY>SGP4</MEAN_ELEMENT_THEORY></metadata><data><meanElements><EPOCH>2024-10-18T01:40:11.585856</EPOCH><MEAN_MOTION>13.12441244</MEAN_MOTION><ECCENTRICITY>.000163</ECCENTRICITY><INCLINATION>87.8844</INCLINATION><RA_OF_ASC_NODE>111.5544</RA_OF_ASC_NODE><ARG_OF_PERICENTER>88.9575</ARG_OF_PERICENTER><MEAN_ANOMALY>271.1741</MEAN_ANOMALY></meanElements><tleParameters><EPHEMERIS_TYPE>0</EPHEMERIS_TYPE><CLASSIFICATION_TYPE>U</CLASSIFICATION_TYPE><NORAD_CAT_ID>47263</NORAD_CAT_ID><ELEMENT_SET_NO>999</ELEMENT_SET_NO><REV_AT_EPOCH>18489</REV_AT_EPOCH><BSTAR>-.1044E-2</BSTAR><MEAN_MOTION_DOT>-.363E-5</MEAN_MOTION_DOT><MEAN_MOTION_DDOT>0</MEAN_MOTION_DDOT></tleParameters></data></segment></body></omm>
<omm id="CCSDS_OMM_VERS" version="2.0">
<header><CREATION_DATE/><ORIGINATOR/></header><body><segment><metadata><OBJECT_NAME>ONEWEB-0118</OBJECT_NAME><OBJECT_ID>2020-100G</OBJECT_ID><CENTER_NAME>EARTH</CENTER_NAME><REF_FRAME>TEME</REF_FRAME><TIME_SYSTEM>UTC</TIME_SYSTEM><MEAN_ELEMENT_THEORY>SGP4</MEAN_ELEMENT_THEORY></metadata><data><meanElements><EPOCH>2024-10-18T00:37:08.601600</EPOCH><MEAN_MOTION>13.12440801</MEAN_MOTION><ECCENTRICITY>.0001591</ECCENTRICITY><INCLINATION>87.8844</INCLINATION><RA_OF_ASC_NODE>111.5659</RA_OF_ASC_NODE><ARG_OF_PERICENTER>74.0545</ARG_OF_PERICENTER><MEAN_ANOMALY>286.0759</MEAN_ANOMALY></meanElements><tleParameters><EPHEMERIS_TYPE>0</EPHEMERIS_TYPE><CLASSIFICATION_TYPE>U</CLASSIFICATION_TYPE><NORAD_CAT_ID>47264</NORAD_CAT_ID><ELEMENT_SET_NO>999</ELEMENT_SET_NO><REV_AT_EPOCH>18508</REV_AT_EPOCH><BSTAR>.2932E-3</BSTAR><MEAN_MOTION_DOT>.118E-5</MEAN_MOTION_DOT><MEAN_MOTION_DDOT>0</MEAN_MOTION_DDOT></tleParameters></data></segment></body></omm>
<omm id="CCSDS_OMM_VERS" version="2.0">
<header><CREATION_DATE/><ORIGINATOR/></header><body><segment><metadata><OBJECT_NAME>ONEWEB-0119</OBJECT_NAME><OBJECT_ID>2020-100H</OBJECT_ID><CENTER_NAME>EARTH</CENTER_NAME><REF_FRAME>TEME</REF_FRAME><TIME_SYSTEM>UTC</TIME_SYSTEM><MEAN_ELEMENT_THEORY>SGP4</MEAN_ELEMENT_THEORY></metadata><data><meanElements><EPOCH>2024-10-17T17:57:42.971328</EPOCH><MEAN_MOTION>13.12441093</MEAN_MOTION><ECCENTRICITY>.0001643</ECCENTRICITY><INCLINATION>87.8843</INCLINATION><RA_OF_ASC_NODE>111.6600</RA_OF_ASC_NODE><ARG_OF_PERICENTER>86.9489</ARG_OF_PERICENTER><MEAN_ANOMALY>273.1827</MEAN_ANOMALY></meanElements><tleParameters><EPHEMERIS_TYPE>0</EPHEMERIS_TYPE><CLASSIFICATION_TYPE>U</CLASSIFICATION_TYPE><NORAD_CAT_ID>47265</NORAD_CAT_ID><ELEMENT_SET_NO>999</ELEMENT_SET_NO><REV_AT_EPOCH>18502</REV_AT_EPOCH><BSTAR>-.32198E-3</BSTAR><MEAN_MOTION_DOT>-.103E-5</MEAN_MOTION_DOT><MEAN_MOTION_DDOT>0</MEAN_MOTION_DDOT></tleParameters></data></segment></body></omm>

</ndm>
